NORAD_CAT_ID,OBJECT_NAME,OBJECT_TYPE,EPOCH,MEAN_MOTION,ECCENTRICITY,INCLINATION,RA_OF_ASC_NODE,ARG_OF_PERICENTER,MEAN_ANOMALY,BSTAR,MEAN_MOTION_DOT,MEAN_MOTION_DDOT,TLE_LINE0,TLE_LINE1,TLE_LINE2,SEMIMAJOR_AXIS,PERIOD,APOGEE,PERIGEE,DECAYED
56784.0,STARLINK-6354,PAYLOAD,2023-06-13 22:00:00,15.76723913,0.0003336,70.0046,15.0082,271.5103,276.0538,-0.0059254,-0.00862388,0.0,0 STARLINK-6354,1 56784U 23078T   23164.91667824 -.00862388  00000-0 -59254-2 0  9993,2 56784  70.0046  15.0082 0003336 271.5103 276.0538 15.76723913  1308,6717.867,91.329,341.973,337.491,0.0
56784.0,STARLINK-6354,PAYLOAD,2023-06-14 14:00:01,15.75469524,0.000357,70.0047,13.1169,265.8949,103.1123,-0.0068555,-0.00935811,0.0,0 STARLINK-6354,1 56784U 23078T   23165.58334491 -.00935811  00000-0 -68555-2 0  9994,2 56784  70.0047  13.1169 0003570 265.8949 103.1123 15.75469524  1302,6721.432,91.401,345.697,340.898,0.0
56784.0,STARLINK-6354,PAYLOAD,2023-06-14 20:00:01,15.74932634,0.0003519,70.0047,12.4084,269.6889,76.5818,-0.006521,-0.00875729,0.0,0 STARLINK-6354,1 56784U 23078T   23165.83334491 -.00875729  00000-0 -65210-2 0  9998,2 56784  70.0047  12.4084 0003519 269.6889  76.5818 15.74932634  2590,6722.96,91.432,347.191,342.459,0.0
56784.0,STARLINK-6354,PAYLOAD,2023-06-14 22:00:00,15.74773659,0.000341,70.0047,12.1725,272.9662,185.6151,-0.0065379,-0.00872238,0.0,0 STARLINK-6354,1 56784U 23078T   23165.91667824 -.00872238  00000-0 -65379-2 0  9994,2 56784  70.0047  12.1725 0003410 272.9662 185.6151 15.74773659  1305,6723.412,91.442,347.57,342.985,0.0
56784.0,STARLINK-6354,PAYLOAD,2023-06-15 12:00:02,15.73650859,0.0003361,70.0044,10.5224,266.0998,257.3786,-0.0070279,-0.00890972,0.0,0 STARLINK-6354,1 56784U 23078T   23166.50002315 -.00890972  00000-0 -70279-2 0  9998,2 56784  70.0044  10.5224 0003361 266.0998 257.3786 15.73650859  2698,6726.61,91.507,350.736,346.214,0.0
56784.0,STARLINK-6354,PAYLOAD,2023-06-15 14:00:01,15.73518088,0.000351,70.0045,10.2869,265.2832,10.0462,-0.0075055,-0.00940488,0.0,0 STARLINK-6354,1 56784U 23078T   23166.58334491 -.00940488  00000-0 -75055-2 0  9994,2 56784  70.0045  10.2869 0003510 265.2832  10.0462 15.73518088  1304,6726.988,91.515,351.215,346.492,0.0
56784.0,STARLINK-6354,PAYLOAD,2023-06-15 20:00:01,15.72976372,0.0003551,70.0041,9.5807,271.5454,339.2907,-0.0071182,-0.0087805,0.0,0 STARLINK-6354,1 56784U 23078T   23166.83334491 -.00878050  00000-0 -71182-2 0  9994,2 56784  70.0041   9.5807 0003551 271.5454 339.2907 15.72976372  1301,6728.533,91.546,352.787,348.009,0.0
56784.0,STARLINK-6354,PAYLOAD,2023-06-16 04:00:00,15.72364696,0.000379,70.0035,8.6396,272.6905,64.7521,-0.007881,-0.00940028,0.0,0 STARLINK-6354,1 56784U 23078T   23167.16667824 -.00940028  00000-0 -78810-2 0  9990,2 56784  70.0035   8.6396 0003790 272.6905  64.7521 15.72364696  2803,6730.278,91.582,354.693,349.592,0.0
56784.0,STARLINK-6354,PAYLOAD,2023-06-16 12:00:00,15.71696797,0.0003828,70.0036,7.6995,269.1235,154.1603,-0.0077159,-0.00899044,0.0,0 STARLINK-6354,1 56784U 23078T   23167.50001157 -.00899044  00000-0 -77159-2 0  9995,2 56784  70.0036   7.6995 0003828 269.1235 154.1603 15.71696797  2856,6732.184,91.621,356.626,351.472,0.0
56784.0,STARLINK-6354,PAYLOAD,2023-06-16 14:00:01,15.71551672,0.0003688,70.0039,7.4647,267.8215,266.7959,-0.0080402,-0.00927749,0.0,0 STARLINK-6354,1 56784U 23078T   23167.58334491 -.00927749  00000-0 -80402-2 0  9992,2 56784  70.0039   7.4647 0003688 267.8215 266.7959 15.71551672  1303,6732.599,91.629,356.947,351.981,0.0
56784.0,STARLINK-6354,PAYLOAD,2023-06-16 22:00:00,15.70850923,0.0003663,70.0037,6.5256,273.5727,345.927,-0.0076103,-0.00859634,0.0,0 STARLINK-6354,1 56784U 23078T   23167.91667824 -.00859634  00000-0 -76103-2 0  9998,2 56784  70.0037   6.5256 0003663 273.5727 345.9270 15.70850923  1308,6734.601,91.67,358.933,353.999,0.0
56784.0,STARLINK-6354,PAYLOAD,2023-06-17 04:00:00,15.70251077,0.0003397,70.003,5.822,274.2361,318.4097,-0.0042158,-0.00485484,0.0,0 STARLINK-6354,1 56784U 23078T   23168.16667824 -.00485484  00000-0 -42158-2 0  9997,2 56784  70.0030   5.8220 0003397 274.2361 318.4097 15.70251077  2959,6736.316,91.705,360.469,355.893,0.0
56784.0,STARLINK-6354,PAYLOAD,2023-06-17 09:07:42,15.70309775,0.0003998,70.0037,5.2213,285.2734,74.802,-0.0040068,-0.00463837,0.0,0 STARLINK-6354,1 56784U 23078T   23168.38035606 -.00463837  00000-0 -40068-2 0  9994,2 56784  70.0037   5.2213 0003998 285.2734  74.8020 15.70309775  2997,6736.148,91.702,360.706,355.32,0.0
56784.0,STARLINK-6354,PAYLOAD,2023-06-17 12:11:11,15.70198928,0.0003713,70.0037,4.8628,280.8393,79.2384,-0.0030219,-0.00352784,0.0,0 STARLINK-6354,1 56784U 23078T   23168.50777747 -.00352784  00000-0 -30219-2 0  9992,2 56784  70.0037   4.8628 0003713 280.8393  79.2384 15.70198928  2751,6736.465,91.708,360.831,355.829,0.0
56784.0,STARLINK-6354,PAYLOAD,2023-06-17 16:46:26,15.70068269,0.0003593,70.0036,4.3259,275.7652,84.3134,-0.0017724,-0.00209369,0.0,0 STARLINK-6354,1 56784U 23078T   23168.69892269 -.00209369  00000-0 -17724-2 0  9995,2 56784  70.0036   4.3259 0003593 275.7652  84.3134 15.70068269  3049,6736.839,91.716,361.124,356.283,0.0
56784.0,STARLINK-6354,PAYLOAD,2023-06-17 21:21:32,15.70697779,0.0003276,70.0035,3.7875,286.8603,73.2233,0.003596,0.00472298,0.0,0 STARLINK-6354,1 56784U 23078T   23168.88995600  .00472298  00000-0  35960-2 0  9992,2 56784  70.0035   3.7875 0003276 286.8603  73.2233 15.70697779  2817,6735.039,91.679,359.11,354.697,0.0
56784.0,STARLINK-6354,PAYLOAD,2023-06-18 04:00:00,15.69937958,0.0003397,70.0008,3.0105,275.7378,207.076,-0.00027467,-0.00033129,0.0,0 STARLINK-6354,1 56784U 23078T   23169.16667824 -.00033129  00000-0 -27467-3 0  9990,2 56784  70.0008   3.0105 0003397 275.7378 207.0760 15.69937958  3116,6737.212,91.723,361.365,356.788,0.0
56784.0,STARLINK-6354,PAYLOAD,2023-06-18 12:00:00,15.69948224,0.0003382,70.0007,2.0733,269.9081,296.2344,-8.7647e-05,-0.00010749,0.0,0 STARLINK-6354,1 56784U 23078T   23169.50001157 -.00010749  00000-0 -87647-4 0  9999,2 56784  70.0007   2.0733 0003382 269.9081 296.2344 15.69948224  3162,6737.182,91.723,361.326,356.769,0.0
56784.0,STARLINK-6354,PAYLOAD,2023-06-18 12:39:14,15.6993519,0.000337,70.0032,1.997,272.8226,87.2584,0.00016151,0.00019261,0.0,0 STARLINK-6354,1 56784U 23078T   23169.52725445  .00019261  00000-0  16151-3 0  9991,2 56784  70.0032   1.9970 0003370 272.8226  87.2584 15.69935190  2916,6737.219,91.724,361.355,356.814,0.0
56784.0,STARLINK-6354,PAYLOAD,2023-06-18 22:00:00,15.6988792,0.0003359,70.0006,0.9014,280.0316,120.322,0.00051732,0.00062361,0.0,0 STARLINK-6354,1 56784U 23078T   23169.91667824  .00062361  00000-0  51732-3 0  9993,2 56784  70.0006   0.9014 0003359 280.0316 120.3220 15.69887920  1308,6737.355,91.726,361.483,356.957,0.0
56784.0,STARLINK-6354,PAYLOAD,2023-06-19 04:00:00,15.6995315,0.0003317,70.0002,0.1986,278.0201,94.8133,-0.00063904,-0.00076448,0.0,0 STARLINK-6354,1 56784U 23078T   23170.16667824 -.00076448  00000-0 -63904-3 0  9999,2 56784  70.0002   0.1986 0003317 278.0201  94.8133 15.69953150  3273,6737.168,91.722,361.268,356.798,0.0
56784.0,STARLINK-6354,PAYLOAD,2023-06-19 08:32:01,15.6995286,0.0003391,70.0005,359.6679,276.3244,83.7566,0.00027331,0.00032818,0.0,0 STARLINK-6354,1 56784U 23078T   23170.35556856  .00032818  00000-0  27331-3 0  9997,2 56784  70.0005 359.6679 0003391 276.3244  83.7566 15.69952860  3305,6737.169,91.722,361.318,356.749,0.0
56784.0,STARLINK-6354,PAYLOAD,2023-06-19 13:07:16,15.69926584,0.0003284,70.0007,359.13,274.8536,85.2284,0.00033674,0.00040477,0.0,0 STARLINK-6354,1 56784U 23078T   23170.54672232  .00040477  00000-0  33674-3 0  9992,2 56784  70.0007 359.1300 0003284 274.8536  85.2284 15.69926584  3073,6737.244,91.724,361.322,356.897,0.0
56784.0,STARLINK-6354,PAYLOAD,2023-06-19 20:00:01,15.69881916,0.00035,70.0002,358.3244,280.9588,258.5605,0.00045697,0.00055,0.0,0 STARLINK-6354,1 56784U 23078T   23170.83334491  .00055000  00000-0  45697-3 0  9992,2 56784  70.0002 358.3244 0003500 280.9588 258.5605 15.69881916  3376,6737.372,91.727,361.595,356.879,0.0
56784.0,STARLINK-6354,PAYLOAD,2023-06-20 12:00:00,15.69951682,0.0003565,70.0,356.4498,274.3788,71.7894,-0.00031638,-0.00038128,0.0,0 STARLINK-6354,1 56784U 23078T   23171.50001157 -.00038128  00000-0 -31638-3 0  9991,2 56784  70.0000 356.4498 0003565 274.3788  71.7894 15.69951682  3489,6737.172,91.723,361.439,356.635,0.0
56784.0,STARLINK-6354,PAYLOAD,2023-06-20 14:00:01,15.69971703,0.0003589,70.0001,356.2153,275.5451,181.4567,-0.00078654,-0.00093928,0.0,0 STARLINK-6354,1 56784U 23078T   23171.58334491 -.00093928  00000-0 -78654-3 0  9997,2 56784  70.0001 356.2153 0003589 275.5451 181.4567 15.69971703  1303,6737.115,91.721,361.398,356.562,0.0
56784.0,STARLINK-6354,PAYLOAD,2023-06-20 22:00:00,15.69884963,0.0003639,70.0001,355.2779,282.1061,258.2516,0.00062631,0.00075659,0.0,0 STARLINK-6354,1 56784U 23078T   23171.91667824  .00075659  00000-0  62631-3 0  9990,2 56784  70.0001 355.2779 0003639 282.1061 258.2516 15.69884963  1301,6737.363,91.726,361.68,356.776,0.0
56784.0,STARLINK-6354,PAYLOAD,2023-06-21 01:49:19,15.69925244,0.0003634,70.0004,354.8301,280.9969,79.0818,0.00038404,0.00046224,0.0,0 STARLINK-6354,1 56784U 23078T   23172.07592419  .00046224  00000-0  38404-3 0  9992,2 56784  70.0004 354.8301 0003634 280.9969  79.0818 15.69925244  3571,6737.248,91.724,361.561,356.665,0.0
56784.0,STARLINK-6354,PAYLOAD,2023-06-21 12:31:35,15.69929511,0.0003693,70.0003,353.5767,278.2821,81.7956,0.000139,0.00016538,0.0,0 STARLINK-6354,1 56784U 23078T   23172.52194148  .00016538  00000-0  13900-3 0  9998,2 56784  70.0003 353.5767 0003693 278.2821  81.7956 15.69929511  3646,6737.236,91.724,361.589,356.613,0.0
56784.0,STARLINK-6354,PAYLOAD,2023-06-21 14:03:20,15.69934338,0.0003754,70.0003,353.3974,279.358,80.7192,0.00019363,0.00023145,0.0,0 STARLINK-6354,1 56784U 23078T   23172.58565815  .00023145  00000-0  19363-3 0  9998,2 56784  70.0003 353.3974 0003754 279.3580  80.7192 15.69934338  3392,6737.222,91.724,361.616,356.558,0.0
